HST                     
1 20580U 90037B   26153.34296606  .00005773  00000+0  18209-3 0  9991
2 20580  28.4711 182.0162 0001700 354.7953   5.2625 15.30586461786295
POLAR                   
1 23802U 96013A   26155.71333008  .00000122  00000+0  00000+0 0  9991
2 23802  79.8402 227.1988 6458114 209.5112  89.0597  1.29846118144695
SWAS                    
1 25560U 98071A   26156.02227030  .00005163  00000+0  32718-3 0  9997
2 25560  69.8965 258.8876 0008725 270.9385  89.0779 15.09540121495436
CXO                     
1 25867U 99040B   26158.79821798  .00000708  00000+0  00000+0 0  9996
2 25867  55.9928 116.9568 7854200 310.2595   0.2905  0.37800379 17286
XMM-NEWTON              
1 25989U 99066A   26157.37875651  .00000096  00000+0  00000+0 0  9999
2 25989  64.5482 283.1267 4678331  65.0797   0.1118  0.50125302 22956
TERRA                   
1 25994U 99068A   26156.23487657  .00000423  00000+0  95146-4 0  9990
2 25994  97.9461 206.2545 0000832 255.4360 146.5617 14.61093305407866
CLUSTER II-FM7 (SAMBA)  
1 26410U 00041A   26156.98399886  .00004453  00000+0  00000+0 0  9992
2 26410 149.8917  48.5803 9040965 265.6480   0.0292  0.44829937 20254
CLUSTER II-FM8 (TANGO)  
1 26464U 00045B   26154.93096890  .00009075  00000+0  00000+0 0  9992
2 26464 150.1347  49.2777 9042973 266.1813   3.2525  0.44411373 20255
ODIN                    
1 26702U 01007A   26156.07744653  .00138173  00000+0  10497-2 0  9996
2 26702  97.3851 196.2749 0006301 158.1180 202.0353 15.71871760387493
TIMED                   
1 26998U 01055B   26156.03209251  .00001644  00000+0  15285-3 0  9995
2 26998  74.0681 259.4915 0000429   5.8341 354.2849 14.95265500329009
CORIOLIS                
1 27640U 03001A   26156.28857607  .00000103  00000+0  69163-4 0  9998
2 27640  98.7126 163.3550 0012882 245.3640 114.6195 14.19941512212539
SORCE                   
1 27651U 03004A   26156.18478439  .00002922  00000+0  21993-3 0  9993
2 27651  39.9921 330.1529 0018265 322.3449  37.6066 15.03645274270091
MOST                    
1 27843U 03031D   26156.31422804  .00000069  00000+0  51948-4 0  9990
2 27843  98.7044 164.2057 0008739 289.2190  70.8041 14.21319954189020
SCISAT 1                
1 27858U 03036A   26156.27284407  .00000577  00000+0  78321-4 0  9999
2 27858  73.9290 195.0149 0008708 263.7223  96.2962 14.81435274229689
SWIFT                   
1 28485U 04047A   26151.76835454  .00063707  00000+0  56852-3 0  9990
2 28485  20.5544 311.3972 0003289  74.7681 285.3128 15.66645040184289
HINODE (SOLAR-B)        
1 29479U 06041A   26156.33037457  .00000823  00000+0  14982-3 0  9993
2 29479  98.0550 172.6577 0016619 330.1513  29.8743 14.68605749 53139
SHIJIAN-6 02A (SJ-6 02A)
1 29505U 06046A   26156.34948014  .00003862  00000+0  20013-3 0  9997
2 29505  97.6362 197.3282 0003596 152.3423 207.8001 15.16795426 70473
SHIJIAN-6 02B (SJ-6 02B)
1 29506U 06046B   26156.34974669  .00001842  00000+0  14744-3 0  9993
2 29506  97.7157 185.4815 0014393  94.7792 265.5076 15.01346219 68962
FGRST (GLAST)           
1 33053U 08029A   26156.04941973  .00004308  00000+0  15974-3 0  9993
2 33053  25.5830 288.7580 0008171 180.1054 179.9483 15.23882787993983
SDO                     
1 36395U 10005A   26155.32544691 -.00000070  00000+0  00000+0 0  9991
2 36395  34.6250  86.5380 0001331  46.7195 134.7054  1.00271400 59933
CRYOSAT 2               
1 36508U 10013A   26156.29614119  .00000134  00000+0  32564-4 0  9991
2 36508  92.0346 274.4120 0002260  85.3485 274.7981 14.51895710856357
X-SAT                   
1 37389U 11015C   26156.29060659  .00000028  00000+0  29498-4 0  9990
2 37389  98.3509 133.8813 0014737  22.6845 337.4984 14.25202173785984
GCOM-W1 (SHIZUKU)       
1 38337U 12025A   26156.07472294  .00000583  00000+0  13936-3 0  9999
2 38337  98.2019  96.8140 0001843  84.8297 285.8902 14.57113109747270
NUSTAR                  
1 38358U 12031A   26156.33336806  .00020613  00000+0  12189-2 0  9990
2 38358   6.0257 123.0330 0008873 286.7070  41.8262 15.08681739  1302
NEOSSAT                 
1 39089U 13009D   26156.22342040  .00000137  00000+0  61965-4 0  9990
2 39089  98.4175 336.5409 0009811 283.7861  76.2233 14.35822099695027
BRITE-AUSTRIA           
1 39091U 13009F   26156.22799600  .00000182  00000+0  76469-4 0  9996
2 39091  98.3993 335.9601 0008962 276.8792  83.1375 14.36537135695339
IRIS                    
1 39197U 13033A   26156.04341405  .00001231  00000+0  14700-3 0  9991
2 39197  97.9337 355.3586 0024477   2.3032 357.8291 14.85860331698577
HISAKI (SPRINT-A)       
1 39253U 13049A   26156.05001856  .00000142  00000+0  10229-3 0  9997
2 39253  29.7212 281.7184 0136929 278.4998  80.0077 13.55543351629773
CASSIOPE                
1 39265U 13055A   26156.15194055  .00038844 -62252-6  42960-3 0  9994
2 39265  80.9143  81.3226 0296813 102.7680 260.6896 15.24099504665831
STSAT-3                 
1 39422U 13066G   26156.26019575  .00004286  00000+0  32531-3 0  9997
2 39422  97.6213 126.3419 0010826  76.2287 284.0142 15.02682048682413
